{"type":"FeatureCollection","features":[{"id":"0","type":"Feature","properties":{"state":"SIKKIM","state_lgd":"11","district":"GYALSHING","district_lgd":"242"},"geometry":{"type":"Polygon","coordinates":[[[88.23187,27.54262],[88.23165,27.51858],[88.23748,27.4751],[88.23744,27.46717],[88.24103,27.46088],[88.24518,27.46022],[88.25496,27.46555],[88.25631,27.4669],[88.25793,27.47105],[88.26059,27.47351],[88.26871,27.47436],[88.27476,27.47774],[88.27818,27.47765],[88.28172,27.46954],[88.2869,27.46664],[88.29014,27.46947],[88.29425,27.47416],[88.29812,27.47675],[88.30316,27.46975],[88.30127,27.46888],[88.30003,27.46654],[88.2998,27.46505],[88.3008,27.46292],[88.3027,27.46099],[88.30827,27.45921],[88.30974,27.45741],[88.31024,27.45276],[88.30977,27.45016],[88.31081,27.44628],[88.30804,27.43912],[88.31112,27.43577],[88.3111,27.42941],[88.31076,27.42897],[88.30225,27.42605],[88.30002,27.42309],[88.29507,27.42084],[88.29327,27.41874],[88.29285,27.41737],[88.29045,27.41466],[88.28842,27.41011],[88.28712,27.40408],[88.28815,27.40199],[88.29037,27.40038],[88.29063,27.3993],[88.28825,27.39354],[88.28689,27.38612],[88.28571,27.38432],[88.27826,27.37657],[88.27608,27.3732],[88.26833,27.36406],[88.26726,27.36178],[88.2676,27.35805],[88.2673,27.35452],[88.26828,27.35258],[88.27094,27.35068],[88.27305,27.34996],[88.27543,27.3481],[88.28007,27.34573],[88.28257,27.3428],[88.2831,27.33928],[88.28034,27.33209],[88.28032,27.33022],[88.28099,27.32844],[88.28028,27.32731],[88.27616,27.32401],[88.27444,27.32352],[88.26861,27.32027],[88.26912,27.31936],[88.26844,27.31875],[88.26819,27.31747],[88.26496,27.3159],[88.26334,27.31285],[88.26194,27.31159],[88.26064,27.31111],[88.2595,27.30919],[88.25804,27.30822],[88.25672,27.30579],[88.2567,27.30141],[88.2602,27.3023],[88.26288,27.30054],[88.26611,27.29968],[88.26657,27.29891],[88.26841,27.2991],[88.27361,27.30135],[88.27568,27.30035],[88.27721,27.30139],[88.27665,27.29966],[88.27487,27.29877],[88.27385,27.29855],[88.26957,27.29927],[88.26905,27.29867],[88.26857,27.29696],[88.26941,27.29492],[88.27035,27.2941],[88.27211,27.29445],[88.27302,27.29417],[88.27076,27.29012],[88.26888,27.29042],[88.26931,27.28905],[88.27049,27.2885],[88.27111,27.28638],[88.26878,27.28317],[88.27451,27.27926],[88.27558,27.2775],[88.27667,27.27672],[88.2804,27.27678],[88.28098,27.27644],[88.28062,27.27393],[88.28127,27.27266],[88.28255,27.27208],[88.2841,27.2663],[88.28368,27.26042],[88.28188,27.2554],[88.28163,27.25161],[88.27879,27.25311],[88.27691,27.25316],[88.2728,27.25465],[88.27065,27.25475],[88.26914,27.25564],[88.26624,27.25611],[88.26183,27.25979],[88.25707,27.26057],[88.25565,27.26124],[88.25627,27.26318],[88.25575,27.26358],[88.25589,27.26415],[88.25483,27.26463],[88.25169,27.26355],[88.25081,27.264],[88.25073,27.26551],[88.24902,27.26674],[88.24785,27.26961],[88.24695,27.27006],[88.24356,27.26979],[88.24028,27.27058],[88.23991,27.26945],[88.23952,27.26963],[88.23966,27.26917],[88.239,27.26909],[88.23964,27.26853],[88.23907,27.26834],[88.23948,27.26781],[88.23867,27.26747],[88.23919,27.26621],[88.23877,27.26583],[88.23725,27.26636],[88.23697,27.26686],[88.23561,27.26675],[88.23456,27.26751],[88.23359,27.26726],[88.23326,27.26773],[88.2338,27.26968],[88.232,27.27049],[88.23088,27.26987],[88.23074,27.26827],[88.22998,27.26743],[88.22993,27.26664],[88.22724,27.26461],[88.22651,27.26208],[88.22411,27.2604],[88.22104,27.25903],[88.21931,27.25893],[88.21567,27.25779],[88.21128,27.25835],[88.20846,27.25794],[88.20649,27.25666],[88.2051,27.25662],[88.20491,27.25616],[88.20368,27.25721],[88.20107,27.25801],[88.20183,27.25916],[88.20109,27.26068],[88.2019,27.26072],[88.2022,27.26288],[88.20176,27.26391],[88.20271,27.26538],[88.1999,27.26608],[88.19928,27.26512],[88.19936,27.26281],[88.20114,27.2605],[88.20016,27.25858],[88.19929,27.25927],[88.19916,27.25896],[88.19774,27.25923],[88.19536,27.26014],[88.18983,27.26596],[88.18931,27.26622],[88.1877,27.26494],[88.18631,27.2654],[88.18599,27.26597],[88.18251,27.26323],[88.18148,27.26298],[88.18166,27.26141],[88.18226,27.26087],[88.18328,27.26119],[88.18543,27.26065],[88.18618,27.26086],[88.18771,27.25941],[88.18849,27.2593],[88.18916,27.25826],[88.18843,27.25711],[88.18259,27.25665],[88.18061,27.25772],[88.1763,27.25822],[88.17235,27.26086],[88.17006,27.25902],[88.16888,27.25892],[88.16639,27.25756],[88.16615,27.257],[88.16316,27.25612],[88.16167,27.25425],[88.15874,27.25364],[88.15701,27.2521],[88.15396,27.25426],[88.1509,27.25433],[88.15049,27.25475],[88.14666,27.25478],[88.14495,27.25427],[88.14424,27.2534],[88.13819,27.25972],[88.1316,27.26019],[88.12794,27.25857],[88.12475,27.25799],[88.12345,27.25833],[88.1188,27.25434],[88.11605,27.2501],[88.11559,27.24608],[88.11433,27.24502],[88.10711,27.24399],[88.10588,27.24556],[88.10315,27.25244],[88.10195,27.25402],[88.09935,27.25344],[88.09383,27.25335],[88.0931,27.25229],[88.09099,27.25154],[88.08736,27.25231],[88.08206,27.25795],[88.07457,27.26183],[88.07237,27.26085],[88.07005,27.26056],[88.06974,27.26122],[88.06759,27.26181],[88.06527,27.26168],[88.06348,27.26073],[88.06146,27.26077],[88.06087,27.2614],[88.06048,27.26421],[88.05901,27.26584],[88.05773,27.26838],[88.05491,27.27084],[88.05155,27.27177],[88.04429,27.271],[88.03766,27.27342],[88.03566,27.27755],[88.03211,27.27784],[88.03285,27.28072],[88.0328,27.28235],[88.03189,27.28443],[88.03205,27.28639],[88.03419,27.28758],[88.03511,27.28925],[88.03706,27.28998],[88.03852,27.29188],[88.04124,27.29114],[88.04315,27.2915],[88.04461,27.29325],[88.04404,27.29596],[88.04206,27.30011],[88.04087,27.30137],[88.04154,27.30408],[88.04254,27.30512],[88.04305,27.30681],[88.04489,27.30964],[88.04673,27.31069],[88.04879,27.31281],[88.04894,27.31503],[88.04982,27.31529],[88.04938,27.31829],[88.05194,27.32235],[88.0523,27.32422],[88.05974,27.32834],[88.06006,27.33005],[88.06346,27.33433],[88.06693,27.33577],[88.06575,27.33753],[88.06486,27.34114],[88.06362,27.34085],[88.0613,27.34476],[88.06098,27.34564],[88.06149,27.34727],[88.05898,27.35135],[88.05762,27.35621],[88.05655,27.35631],[88.05325,27.35836],[88.05073,27.35843],[88.04749,27.36174],[88.04684,27.36417],[88.04472,27.36608],[88.04447,27.36743],[88.04183,27.37029],[88.0417,27.37344],[88.04282,27.37663],[88.04484,27.37987],[88.04478,27.3825],[88.04406,27.38477],[88.04511,27.38827],[88.04472,27.38964],[88.04578,27.39269],[88.04576,27.3958],[88.04842,27.40103],[88.04768,27.40253],[88.04742,27.40517],[88.0468,27.40593],[88.04963,27.40725],[88.05071,27.41298],[88.05286,27.41467],[88.05507,27.41791],[88.05691,27.41886],[88.05819,27.41845],[88.06022,27.42079],[88.06317,27.4221],[88.06779,27.42533],[88.07409,27.42681],[88.07341,27.42776],[88.07362,27.42904],[88.07315,27.43078],[88.07357,27.43183],[88.07506,27.43322],[88.07333,27.43384],[88.06782,27.43834],[88.07211,27.44454],[88.07244,27.44582],[88.07079,27.44658],[88.07068,27.44748],[88.06989,27.44808],[88.06725,27.44948],[88.06703,27.45153],[88.06435,27.45365],[88.0663,27.45507],[88.06686,27.45787],[88.06556,27.45889],[88.06341,27.45896],[88.06052,27.46077],[88.05962,27.46201],[88.05936,27.46356],[88.05718,27.46577],[88.05714,27.46691],[88.0537,27.46878],[88.05158,27.47139],[88.04859,27.47242],[88.04782,27.47409],[88.04621,27.47512],[88.04514,27.47725],[88.04414,27.4781],[88.04425,27.4793],[88.04554,27.48152],[88.04416,27.48418],[88.04408,27.48941],[88.04508,27.49349],[88.04408,27.49581],[88.04662,27.50095],[88.04797,27.50196],[88.04922,27.50198],[88.05024,27.50286],[88.05058,27.50393],[88.05515,27.50444],[88.05732,27.50675],[88.05786,27.5092],[88.06061,27.51076],[88.06187,27.51217],[88.0617,27.51297],[88.0581,27.51572],[88.05842,27.52042],[88.0594,27.52068],[88.06101,27.5249],[88.06626,27.52733],[88.0655,27.52947],[88.06432,27.52996],[88.06187,27.52999],[88.05954,27.5319],[88.05875,27.53339],[88.05865,27.53482],[88.05952,27.53544],[88.0612,27.54029],[88.06426,27.54201],[88.06418,27.54305],[88.06501,27.54425],[88.06716,27.54463],[88.0688,27.54626],[88.06881,27.54899],[88.06826,27.55057],[88.0684,27.55253],[88.0692,27.55356],[88.06906,27.55491],[88.07212,27.55655],[88.07506,27.55746],[88.0759,27.55861],[88.07862,27.56041],[88.08014,27.56395],[88.08114,27.56515],[88.07944,27.5682],[88.07771,27.56887],[88.07551,27.57175],[88.07697,27.57345],[88.07747,27.57525],[88.08055,27.57753],[88.07911,27.57909],[88.0806,27.58034],[88.08097,27.58247],[88.08439,27.58835],[88.08756,27.59168],[88.09028,27.59565],[88.09202,27.59652],[88.09302,27.59788],[88.09848,27.59944],[88.10316,27.60176],[88.10638,27.60271],[88.10902,27.60639],[88.11282,27.609],[88.11385,27.61031],[88.11404,27.61105],[88.11306,27.61238],[88.11256,27.61426],[88.11276,27.61519],[88.1138,27.61621],[88.16324,27.60487],[88.1841,27.59733],[88.18931,27.59243],[88.19736,27.58268],[88.20207,27.5754],[88.20464,27.56788],[88.21024,27.55719],[88.21429,27.5528],[88.23042,27.54554],[88.23187,27.54262]]]}},{"id":"1","type":"Feature","properties":{"state":"SIKKIM","state_lgd":"11","district":"PAKYONG","district_lgd":"702"},"geometry":{"type":"Polygon","coordinates":[[[88.81286,27.29764],[88.82043,27.29704],[88.85845,27.29942],[88.87204,27.29953],[88.90161,27.30258],[88.90772,27.30376],[88.9087,27.30368],[88.90942,27.29916],[88.91157,27.29577],[88.91356,27.29009],[88.91098,27.28542],[88.90843,27.28205],[88.90849,27.27917],[88.90774,27.27704],[88.90377,27.27295],[88.90235,27.27253],[88.89998,27.2743],[88.89868,27.27278],[88.89768,27.27019],[88.89599,27.27015],[88.8924,27.26888],[88.88774,27.26848],[88.88657,27.26796],[88.88166,27.26496],[88.87911,27.26114],[88.86659,27.26463],[88.85747,27.26438],[88.83213,27.26233],[88.83143,27.26218],[88.82816,27.25724],[88.8031,27.24784],[88.8042,27.23648],[88.80274,27.23295],[88.80205,27.22777],[88.80327,27.22],[88.80144,27.21605],[88.79881,27.20758],[88.79647,27.20577],[88.78909,27.19383],[88.78923,27.1891],[88.7882,27.18458],[88.78676,27.18199],[88.7839,27.18189],[88.77885,27.18353],[88.77337,27.18217],[88.76961,27.18052],[88.76461,27.17702],[88.7624,27.17259],[88.75719,27.16539],[88.7581,27.16122],[88.75721,27.15867],[88.75946,27.15608],[88.76038,27.15289],[88.76008,27.15218],[88.75688,27.1482],[88.7493,27.14744],[88.74606,27.14426],[88.746,27.14285],[88.74412,27.14049],[88.73862,27.1354],[88.72896,27.13627],[88.72411,27.13834],[88.72201,27.14179],[88.71979,27.14294],[88.71781,27.14331],[88.717,27.1515],[88.71705,27.15597],[88.71599,27.16003],[88.71248,27.16248],[88.71012,27.16684],[88.70858,27.16805],[88.70544,27.16885],[88.70449,27.1697],[88.70294,27.1714],[88.70173,27.17387],[88.69661,27.17564],[88.69153,27.17839],[88.68451,27.17989],[88.68098,27.17964],[88.67801,27.17838],[88.67102,27.173],[88.66863,27.16987],[88.66633,27.16782],[88.66284,27.16168],[88.66026,27.16055],[88.65922,27.16141],[88.65732,27.16195],[88.65335,27.16193],[88.6525,27.16258],[88.65215,27.16412],[88.65145,27.16485],[88.64857,27.16528],[88.64681,27.16616],[88.64315,27.1651],[88.63978,27.16484],[88.63745,27.16628],[88.63551,27.16668],[88.63477,27.16872],[88.635,27.17084],[88.63424,27.17259],[88.63102,27.17426],[88.62859,27.17702],[88.62671,27.17755],[88.62597,27.18037],[88.62289,27.17936],[88.62232,27.18037],[88.62302,27.18165],[88.62228,27.18245],[88.62006,27.18194],[88.61871,27.18334],[88.61432,27.18169],[88.61195,27.18223],[88.61027,27.18362],[88.608,27.18398],[88.60371,27.18623],[88.60162,27.18567],[88.59974,27.18854],[88.59795,27.18981],[88.59558,27.18785],[88.59436,27.18789],[88.59286,27.19122],[88.59139,27.19117],[88.59025,27.19033],[88.58986,27.18734],[88.58879,27.18636],[88.58715,27.18721],[88.58719,27.19004],[88.58594,27.19039],[88.58468,27.18965],[88.58333,27.1876],[88.58104,27.18881],[88.57129,27.18634],[88.56721,27.18477],[88.56247,27.1857],[88.55828,27.18561],[88.55551,27.18527],[88.55197,27.1831],[88.54832,27.18269],[88.54298,27.18318],[88.54158,27.18232],[88.54055,27.18082],[88.53963,27.17738],[88.53874,27.1773],[88.53612,27.17936],[88.53507,27.17889],[88.53274,27.17379],[88.53096,27.17217],[88.52716,27.17368],[88.52463,27.17389],[88.51961,27.1734],[88.51876,27.17252],[88.51644,27.17365],[88.51449,27.17398],[88.51123,27.17342],[88.50733,27.17681],[88.50726,27.18147],[88.50549,27.18345],[88.49842,27.18926],[88.49443,27.1888],[88.49291,27.18986],[88.49043,27.19426],[88.48998,27.19869],[88.48917,27.19871],[88.48379,27.20588],[88.48327,27.21082],[88.48075,27.21703],[88.48056,27.21871],[88.48118,27.22006],[88.48234,27.22109],[88.48518,27.22258],[88.48467,27.22742],[88.48595,27.23174],[88.48693,27.23789],[88.48998,27.24313],[88.4904,27.24534],[88.49221,27.24574],[88.4958,27.24785],[88.49898,27.24863],[88.49766,27.25201],[88.49972,27.25322],[88.50163,27.25556],[88.50324,27.25604],[88.50752,27.25598],[88.51023,27.25765],[88.51192,27.25957],[88.51322,27.26027],[88.51437,27.26045],[88.51611,27.25998],[88.518,27.26111],[88.5201,27.26093],[88.52068,27.26026],[88.52343,27.26181],[88.52091,27.26217],[88.52068,27.26262],[88.52131,27.26473],[88.52275,27.2665],[88.52505,27.26664],[88.53096,27.27149],[88.5349,27.27],[88.53661,27.27063],[88.53795,27.26926],[88.53875,27.26932],[88.5393,27.26976],[88.53859,27.2708],[88.53926,27.27176],[88.54218,27.27299],[88.54674,27.27702],[88.54893,27.27838],[88.55242,27.27848],[88.55427,27.28111],[88.55568,27.28166],[88.56357,27.28268],[88.56679,27.27988],[88.56865,27.27965],[88.56869,27.27882],[88.56781,27.27775],[88.56732,27.27604],[88.56985,27.27607],[88.57271,27.27361],[88.57285,27.27127],[88.57224,27.27124],[88.57161,27.26958],[88.57157,27.27017],[88.5709,27.27043],[88.57078,27.27008],[88.57125,27.26827],[88.57317,27.26877],[88.57468,27.27015],[88.57853,27.27028],[88.57889,27.27136],[88.57983,27.27238],[88.58116,27.27293],[88.58139,27.27359],[88.5826,27.27389],[88.58401,27.27515],[88.585,27.27505],[88.58528,27.2765],[88.58658,27.27516],[88.58932,27.27459],[88.59314,27.27423],[88.59419,27.275],[88.59502,27.27373],[88.59604,27.27348],[88.59716,27.27443],[88.5973,27.27587],[88.59812,27.27609],[88.59781,27.2782],[88.5999,27.2806],[88.59981,27.28137],[88.59831,27.28189],[88.59835,27.28236],[88.59932,27.28365],[88.60164,27.284],[88.60255,27.28865],[88.60451,27.28994],[88.6066,27.29453],[88.60767,27.29497],[88.6071,27.2957],[88.60766,27.29766],[88.6094,27.29888],[88.6106,27.29809],[88.61237,27.29935],[88.61352,27.29893],[88.61427,27.29944],[88.61584,27.29916],[88.61713,27.30118],[88.61931,27.30067],[88.62066,27.30152],[88.62249,27.30099],[88.6251,27.30159],[88.62639,27.30239],[88.6312,27.3024],[88.63366,27.30202],[88.63616,27.30069],[88.63804,27.30164],[88.63962,27.30144],[88.64143,27.29939],[88.64296,27.2985],[88.64459,27.29846],[88.65404,27.30331],[88.65627,27.30528],[88.65863,27.30579],[88.66091,27.30744],[88.6649,27.30853],[88.66816,27.31148],[88.66956,27.30952],[88.67074,27.30873],[88.67079,27.30635],[88.66972,27.30399],[88.6651,27.29984],[88.66561,27.29708],[88.66775,27.29802],[88.66893,27.29954],[88.67238,27.30223],[88.6791,27.30619],[88.69348,27.31315],[88.70748,27.32072],[88.71232,27.32266],[88.71768,27.32167],[88.73241,27.31497],[88.73963,27.30957],[88.74612,27.30594],[88.81286,27.29764]]]}},{"id":"2","type":"Feature","properties":{"state":"SIKKIM","state_lgd":"11","district":"NAMCHI","district_lgd":"243"},"geometry":{"type":"Polygon","coordinates":[[[88.3756,27.47371],[88.37611,27.4692],[88.37813,27.46444],[88.39474,27.45453],[88.41152,27.44751],[88.43742,27.45265],[88.45381,27.45245],[88.46416,27.45119],[88.4648,27.45061],[88.46442,27.44976],[88.46538,27.44167],[88.4671,27.43996],[88.46799,27.43771],[88.47241,27.43587],[88.47456,27.43344],[88.47609,27.4329],[88.47858,27.43077],[88.48045,27.43014],[88.48162,27.42859],[88.48309,27.42877],[88.491,27.4274],[88.49209,27.42688],[88.4938,27.42483],[88.49756,27.42391],[88.49952,27.42271],[88.50016,27.42146],[88.50544,27.42033],[88.50994,27.41143],[88.50231,27.40982],[88.5,27.40657],[88.49478,27.39389],[88.49408,27.3876],[88.49419,27.37904],[88.49525,27.37178],[88.49432,27.36502],[88.4933,27.36329],[88.48884,27.35987],[88.48313,27.35671],[88.47832,27.35627],[88.47534,27.35346],[88.47105,27.35365],[88.47026,27.35314],[88.46878,27.35301],[88.46692,27.35397],[88.46286,27.35164],[88.46239,27.35096],[88.4619,27.3496],[88.46256,27.34674],[88.46236,27.34286],[88.46001,27.34008],[88.45706,27.33804],[88.45527,27.33542],[88.45525,27.32894],[88.45318,27.324],[88.45318,27.31959],[88.4519,27.31857],[88.44827,27.31353],[88.44745,27.31111],[88.44826,27.30543],[88.44698,27.29994],[88.44802,27.29678],[88.45398,27.28929],[88.45587,27.28896],[88.4596,27.28945],[88.46193,27.28817],[88.46359,27.28112],[88.46806,27.27513],[88.4696,27.27121],[88.47418,27.26881],[88.47477,27.26674],[88.47658,27.26594],[88.47626,27.26554],[88.47671,27.26585],[88.48015,27.26404],[88.48462,27.26258],[88.48617,27.26143],[88.48727,27.25665],[88.48984,27.25197],[88.48974,27.25101],[88.48909,27.25104],[88.48974,27.25091],[88.4903,27.24416],[88.48743,27.23906],[88.4865,27.23644],[88.48595,27.23174],[88.48467,27.22742],[88.48518,27.22258],[88.48133,27.22023],[88.48055,27.21787],[88.48327,27.21082],[88.48391,27.20556],[88.48917,27.19871],[88.48998,27.19869],[88.49015,27.1951],[88.49249,27.19038],[88.49443,27.1888],[88.49842,27.18926],[88.50549,27.18345],[88.50726,27.18147],[88.50733,27.17681],[88.51123,27.17342],[88.51449,27.17398],[88.51644,27.17365],[88.51876,27.17252],[88.51961,27.1734],[88.52122,27.17355],[88.52077,27.17289],[88.52125,27.17223],[88.52758,27.16651],[88.53116,27.1655],[88.5314,27.16368],[88.52812,27.15947],[88.52764,27.1574],[88.52854,27.15668],[88.5319,27.15609],[88.53305,27.1554],[88.53352,27.15456],[88.53298,27.1518],[88.53204,27.14982],[88.52802,27.14899],[88.52536,27.1493],[88.52197,27.14892],[88.51927,27.14752],[88.51803,27.14593],[88.51769,27.14323],[88.51625,27.14195],[88.51324,27.14075],[88.5112,27.13724],[88.50705,27.13711],[88.50593,27.13661],[88.50327,27.13374],[88.49967,27.13091],[88.49878,27.12906],[88.49901,27.12551],[88.49774,27.12382],[88.49579,27.12352],[88.48999,27.12583],[88.48748,27.12592],[88.48623,27.12489],[88.48606,27.12186],[88.48509,27.12092],[88.47778,27.12282],[88.47541,27.12171],[88.46787,27.11395],[88.4668,27.10888],[88.46645,27.10274],[88.46518,27.10081],[88.46197,27.09838],[88.46098,27.09279],[88.45958,27.09058],[88.45445,27.08786],[88.45053,27.08389],[88.44556,27.08289],[88.43926,27.08241],[88.43295,27.07926],[88.43085,27.08047],[88.42579,27.0815],[88.42155,27.08343],[88.41367,27.08804],[88.41103,27.08895],[88.40762,27.08968],[88.39922,27.09025],[88.39251,27.09355],[88.38737,27.09494],[88.38412,27.09529],[88.37489,27.09748],[88.37037,27.09728],[88.36557,27.09594],[88.36118,27.09568],[88.35875,27.09601],[88.35682,27.09738],[88.35715,27.10021],[88.35604,27.10102],[88.35152,27.09967],[88.34952,27.0998],[88.3457,27.10692],[88.34353,27.10906],[88.34139,27.11012],[88.33963,27.11036],[88.33784,27.10983],[88.3364,27.10741],[88.33537,27.10675],[88.33358,27.10692],[88.33094,27.10793],[88.32944,27.10777],[88.32489,27.10637],[88.32266,27.10458],[88.32154,27.10475],[88.32102,27.10544],[88.32109,27.10686],[88.32338,27.10903],[88.32368,27.1105],[88.32247,27.1132],[88.32285,27.11764],[88.31947,27.12028],[88.31645,27.12179],[88.31603,27.12514],[88.31534,27.12615],[88.31082,27.12507],[88.30904,27.12584],[88.30627,27.12792],[88.30229,27.12929],[88.29918,27.12833],[88.29842,27.12593],[88.29722,27.12518],[88.29264,27.12748],[88.29033,27.12785],[88.28609,27.12665],[88.28383,27.12747],[88.27901,27.13187],[88.27705,27.13075],[88.27677,27.13128],[88.27648,27.13378],[88.2806,27.13457],[88.28226,27.13578],[88.28445,27.14311],[88.28307,27.14575],[88.28299,27.14796],[88.29111,27.15898],[88.29104,27.1606],[88.28936,27.16346],[88.28909,27.16523],[88.29182,27.1672],[88.29831,27.16908],[88.29907,27.17065],[88.29938,27.17478],[88.30245,27.17834],[88.30502,27.17978],[88.30689,27.18176],[88.31569,27.18512],[88.31703,27.18605],[88.31704,27.18847],[88.31411,27.19189],[88.31441,27.19301],[88.31693,27.19517],[88.31455,27.20166],[88.31241,27.20494],[88.30893,27.21269],[88.30705,27.22183],[88.30596,27.22414],[88.30411,27.22633],[88.30043,27.22885],[88.29789,27.22976],[88.29115,27.23086],[88.28973,27.23161],[88.28688,27.23482],[88.28354,27.24079],[88.28176,27.24926],[88.28156,27.25275],[88.28188,27.2554],[88.28368,27.26042],[88.2841,27.2663],[88.28325,27.2683],[88.28269,27.27173],[88.28078,27.27344],[88.28074,27.2767],[88.27667,27.27672],[88.27558,27.2775],[88.27451,27.27926],[88.26878,27.28317],[88.27111,27.28638],[88.27049,27.2885],[88.26931,27.28905],[88.26888,27.29042],[88.27076,27.29012],[88.27302,27.29417],[88.27211,27.29445],[88.27035,27.2941],[88.26941,27.29492],[88.26857,27.29696],[88.26905,27.29867],[88.26957,27.29927],[88.27385,27.29855],[88.27487,27.29877],[88.27665,27.29966],[88.27721,27.30139],[88.27568,27.30035],[88.27361,27.30135],[88.26841,27.2991],[88.26657,27.29891],[88.26611,27.29968],[88.26288,27.30054],[88.2602,27.3023],[88.2567,27.30141],[88.25672,27.30579],[88.25804,27.30822],[88.2595,27.30919],[88.26064,27.31111],[88.26194,27.31159],[88.26334,27.31285],[88.26496,27.3159],[88.26819,27.31747],[88.26844,27.31875],[88.26912,27.31936],[88.26861,27.32027],[88.27444,27.32352],[88.27616,27.32401],[88.28028,27.32731],[88.28099,27.32844],[88.28032,27.33022],[88.28034,27.33209],[88.2831,27.33928],[88.28257,27.3428],[88.28007,27.34573],[88.27543,27.3481],[88.27305,27.34996],[88.27094,27.35068],[88.26828,27.35258],[88.2673,27.35452],[88.2676,27.35805],[88.26726,27.36178],[88.26833,27.36406],[88.27608,27.3732],[88.27826,27.37657],[88.28571,27.38432],[88.28689,27.38612],[88.28825,27.39354],[88.29063,27.3993],[88.29037,27.40038],[88.28815,27.40199],[88.28712,27.40408],[88.28842,27.41011],[88.29045,27.41466],[88.29285,27.41737],[88.29327,27.41874],[88.29507,27.42084],[88.30002,27.42309],[88.30225,27.42605],[88.31076,27.42897],[88.3111,27.42941],[88.31112,27.43577],[88.30804,27.43912],[88.31081,27.44628],[88.30977,27.45016],[88.31019,27.4535],[88.30945,27.4582],[88.30721,27.4598],[88.3027,27.46099],[88.30007,27.46424],[88.29981,27.46562],[88.30086,27.46828],[88.30173,27.46933],[88.30316,27.46975],[88.29812,27.47675],[88.29425,27.47416],[88.29014,27.46947],[88.2869,27.46664],[88.28172,27.46954],[88.27818,27.47765],[88.27476,27.47774],[88.26871,27.47436],[88.26059,27.47351],[88.25793,27.47105],[88.25631,27.4669],[88.25496,27.46555],[88.24518,27.46022],[88.24103,27.46088],[88.23744,27.46717],[88.23748,27.4751],[88.23165,27.51858],[88.23187,27.54262],[88.23042,27.54554],[88.23136,27.54745],[88.23533,27.55289],[88.24158,27.5581],[88.24829,27.56176],[88.26289,27.56697],[88.27406,27.57021],[88.29159,27.57688],[88.29819,27.57845],[88.30728,27.57846],[88.3101,27.57735],[88.31514,27.57386],[88.32168,27.56816],[88.32554,27.55494],[88.32664,27.55339],[88.34639,27.53461],[88.3524,27.53124],[88.36403,27.51903],[88.36493,27.494],[88.3756,27.47371]]]}},{"id":"3","type":"Feature","properties":{"state":"SIKKIM","state_lgd":"11","district":"MANGAN","district_lgd":"241"},"geometry":{"type":"Polygon","coordinates":[[[88.1138,27.61621],[88.11697,27.62017],[88.11661,27.62404],[88.11991,27.62765],[88.11958,27.62839],[88.11698,27.62981],[88.11844,27.63282],[88.11858,27.63473],[88.12063,27.63843],[88.12008,27.64097],[88.12067,27.64233],[88.12021,27.64525],[88.12178,27.64626],[88.12452,27.65],[88.12871,27.65216],[88.13027,27.65351],[88.13215,27.6562],[88.13461,27.65629],[88.13734,27.6574],[88.1385,27.65833],[88.13915,27.66037],[88.14204,27.66317],[88.1437,27.66373],[88.14469,27.66535],[88.14521,27.66902],[88.14721,27.67467],[88.14723,27.67599],[88.14665,27.67701],[88.14694,27.67934],[88.14858,27.68189],[88.14916,27.6839],[88.15041,27.68463],[88.15101,27.68666],[88.15281,27.68898],[88.15306,27.69024],[88.15415,27.6918],[88.15114,27.69609],[88.15084,27.69853],[88.14963,27.69914],[88.14872,27.70178],[88.14757,27.7028],[88.14909,27.70488],[88.14903,27.70815],[88.1528,27.71172],[88.15449,27.71629],[88.15537,27.71735],[88.15535,27.71932],[88.15451,27.72054],[88.15447,27.72854],[88.15617,27.73611],[88.15795,27.73794],[88.15848,27.74057],[88.16053,27.73985],[88.16287,27.73977],[88.16594,27.74104],[88.16991,27.74114],[88.17421,27.74292],[88.17592,27.74561],[88.17837,27.74618],[88.17892,27.74995],[88.17757,27.75584],[88.17767,27.75844],[88.18228,27.76262],[88.18366,27.7667],[88.18179,27.76941],[88.1822,27.77577],[88.18337,27.77679],[88.18546,27.77714],[88.18726,27.7787],[88.18957,27.78228],[88.19054,27.78259],[88.19529,27.78626],[88.19586,27.78865],[88.19717,27.79117],[88.19397,27.79641],[88.19197,27.79692],[88.18869,27.79942],[88.18742,27.8011],[88.18626,27.80466],[88.18654,27.80742],[88.18549,27.80859],[88.18561,27.81058],[88.17927,27.81545],[88.17409,27.81737],[88.17359,27.8206],[88.17536,27.82153],[88.18284,27.82312],[88.18801,27.82546],[88.19144,27.82948],[88.19164,27.83127],[88.19255,27.83296],[88.19563,27.8353],[88.19796,27.83615],[88.20005,27.83594],[88.20182,27.83672],[88.2028,27.83851],[88.2019,27.8425],[88.1986,27.84533],[88.19738,27.84879],[88.19762,27.85134],[88.19639,27.85379],[88.19522,27.85454],[88.19416,27.85483],[88.18901,27.85438],[88.18698,27.85585],[88.18591,27.85586],[88.18556,27.85653],[88.18321,27.857],[88.17895,27.85648],[88.17741,27.85798],[88.17666,27.85958],[88.17507,27.86074],[88.17407,27.86266],[88.16706,27.86606],[88.1666,27.867],[88.16493,27.8683],[88.16215,27.86957],[88.15781,27.87066],[88.15475,27.87072],[88.1537,27.87158],[88.15312,27.87303],[88.14959,27.87533],[88.14899,27.87641],[88.14408,27.87795],[88.14007,27.87741],[88.13669,27.88123],[88.13501,27.88162],[88.13624,27.88454],[88.13794,27.88564],[88.13989,27.8883],[88.1399,27.88915],[88.13726,27.89232],[88.1343,27.89705],[88.13083,27.89892],[88.12263,27.90837],[88.12191,27.9117],[88.11958,27.916],[88.11975,27.91829],[88.12125,27.92197],[88.12549,27.92453],[88.12934,27.92502],[88.13065,27.92575],[88.13049,27.92937],[88.13207,27.93287],[88.13472,27.93548],[88.13786,27.93715],[88.1356,27.94399],[88.13275,27.94718],[88.12939,27.94937],[88.13434,27.95132],[88.14521,27.96408],[88.14885,27.96079],[88.1543,27.9574],[88.16389,27.95768],[88.16511,27.95597],[88.17056,27.95245],[88.17907,27.94919],[88.18382,27.94443],[88.18547,27.94349],[88.18991,27.94289],[88.19534,27.94416],[88.20059,27.94169],[88.20534,27.94156],[88.2066,27.94195],[88.20495,27.9484],[88.20574,27.95246],[88.20556,27.95571],[88.20646,27.95968],[88.20796,27.96166],[88.21084,27.96368],[88.21275,27.96427],[88.21476,27.96306],[88.22505,27.96042],[88.22915,27.9659],[88.23717,27.97085],[88.23842,27.96552],[88.2405,27.96123],[88.24151,27.95715],[88.24257,27.95526],[88.24739,27.94979],[88.24877,27.94543],[88.25108,27.94235],[88.2541,27.94528],[88.25753,27.94634],[88.25994,27.94648],[88.26112,27.94713],[88.26473,27.95614],[88.26624,27.9573],[88.26819,27.95713],[88.27032,27.95582],[88.27394,27.9545],[88.27564,27.9547],[88.2788,27.95576],[88.28056,27.95705],[88.28377,27.96326],[88.28604,27.96626],[88.29041,27.9657],[88.29334,27.96582],[88.29753,27.96723],[88.29995,27.96728],[88.30232,27.96676],[88.30347,27.96581],[88.30821,27.96711],[88.30957,27.96793],[88.31117,27.97029],[88.3132,27.97084],[88.31541,27.97651],[88.31694,27.97839],[88.31792,27.9788],[88.32096,27.97815],[88.32597,27.97624],[88.32733,27.97547],[88.32928,27.97341],[88.3304,27.97318],[88.33193,27.97478],[88.33501,27.98148],[88.33672,27.98415],[88.33921,27.98442],[88.34134,27.98556],[88.34566,27.98502],[88.35227,27.98995],[88.35525,27.99003],[88.35995,27.98881],[88.36227,27.9887],[88.36958,27.98933],[88.37115,27.98987],[88.37177,27.99108],[88.3746,27.99007],[88.37701,27.98987],[88.379,27.98523],[88.38091,27.98307],[88.3843,27.98164],[88.38618,27.98142],[88.38739,27.97944],[88.38915,27.97874],[88.39563,27.97894],[88.39776,27.97802],[88.39907,27.97804],[88.4006,27.98092],[88.40302,27.98263],[88.40378,27.98284],[88.4068,27.98173],[88.41077,27.98328],[88.41149,27.98506],[88.41083,27.98808],[88.41222,27.9945],[88.41255,27.9958],[88.4147,27.99888],[88.41823,28.00082],[88.42379,28.00118],[88.42461,28.0016],[88.42586,28.00261],[88.42882,28.00668],[88.43059,28.00809],[88.43476,28.00799],[88.44375,28.00938],[88.44584,28.01062],[88.4512,28.01228],[88.45638,28.01492],[88.45781,28.01509],[88.46079,28.01455],[88.46148,28.01573],[88.46238,28.01615],[88.4671,28.01664],[88.46782,28.01714],[88.47263,28.02661],[88.47444,28.03387],[88.47619,28.03529],[88.47853,28.03847],[88.48036,28.04254],[88.48247,28.04373],[88.48584,28.0439],[88.48805,28.04448],[88.49195,28.04887],[88.49449,28.05312],[88.49562,28.05393],[88.49655,28.0539],[88.49797,28.05237],[88.50448,28.04782],[88.50962,28.04119],[88.51968,28.04355],[88.52185,28.03629],[88.52351,28.03499],[88.52503,28.03547],[88.52753,28.03777],[88.5293,28.03669],[88.53271,28.03332],[88.54364,28.03325],[88.54587,28.03406],[88.5508,28.03757],[88.55107,28.03935],[88.54897,28.04308],[88.5487,28.04681],[88.55176,28.05482],[88.55392,28.06738],[88.55622,28.07348],[88.55599,28.07509],[88.55255,28.08142],[88.5597,28.08393],[88.56161,28.08562],[88.56349,28.08854],[88.56627,28.09033],[88.56932,28.08963],[88.57071,28.08879],[88.57494,28.08462],[88.57701,28.08398],[88.5791,28.08393],[88.58148,28.08299],[88.584,28.08331],[88.58788,28.08728],[88.59123,28.08926],[88.59742,28.0886],[88.60259,28.08917],[88.60214,28.09205],[88.60523,28.0976],[88.6116,28.09905],[88.61934,28.09808],[88.61934,28.1014],[88.61866,28.10328],[88.61771,28.11],[88.6177,28.11777],[88.61579,28.11926],[88.61063,28.12111],[88.60858,28.1226],[88.60996,28.12869],[88.62402,28.12618],[88.62764,28.12509],[88.63435,28.11957],[88.63766,28.11509],[88.64595,28.09875],[88.65081,28.09682],[88.65441,28.09465],[88.6564,28.09241],[88.65686,28.09004],[88.66135,28.08964],[88.66434,28.08741],[88.6654,28.08542],[88.66516,28.08264],[88.6664,28.07978],[88.66668,28.0761],[88.67206,28.07234],[88.67844,28.07146],[88.68025,28.07566],[88.68135,28.07691],[88.68357,28.07773],[88.68681,28.07794],[88.69344,28.07763],[88.69578,28.07618],[88.6972,28.07593],[88.70325,28.07626],[88.70667,28.07733],[88.70955,28.07764],[88.71315,28.07692],[88.71844,28.07458],[88.72042,28.07433],[88.73485,28.07435],[88.74341,28.07516],[88.7471,28.07604],[88.75629,28.07597],[88.75852,28.0743],[88.76565,28.07047],[88.77093,28.06587],[88.77415,28.0623],[88.7776,28.05412],[88.78378,28.05395],[88.78467,28.0535],[88.78741,28.05038],[88.79288,28.04864],[88.79385,28.0434],[88.79546,28.04292],[88.79758,28.04094],[88.80169,28.03492],[88.80307,28.03181],[88.80588,28.02916],[88.80777,28.02843],[88.81359,28.02244],[88.81688,28.02068],[88.82015,28.02147],[88.82263,28.02086],[88.83029,28.01712],[88.83469,28.0158],[88.83628,28.01481],[88.83779,28.00854],[88.83798,28.00049],[88.83928,27.99774],[88.8429,27.9946],[88.84371,27.99325],[88.84381,27.99042],[88.84317,27.98538],[88.8414,27.98174],[88.84299,27.97526],[88.84084,27.96634],[88.8424,27.96363],[88.84289,27.95278],[88.84177,27.94956],[88.84134,27.94415],[88.84069,27.94344],[88.83871,27.94273],[88.83921,27.94065],[88.83765,27.93663],[88.83762,27.93161],[88.83694,27.92878],[88.84358,27.92881],[88.8469,27.92811],[88.85265,27.92578],[88.86041,27.92715],[88.86194,27.9245],[88.86301,27.92353],[88.8637,27.92134],[88.87002,27.9156],[88.86933,27.913],[88.87015,27.91015],[88.86918,27.90759],[88.86953,27.90544],[88.87157,27.90283],[88.87217,27.90119],[88.87181,27.89852],[88.88263,27.89077],[88.88222,27.8888],[88.88066,27.88662],[88.88078,27.88228],[88.87849,27.87973],[88.87781,27.87576],[88.87841,27.87421],[88.87937,27.86716],[88.88287,27.86311],[88.88505,27.86154],[88.88733,27.85801],[88.88767,27.85618],[88.88468,27.85265],[88.88182,27.85087],[88.8813,27.84975],[88.88176,27.84695],[88.88051,27.84459],[88.88065,27.84312],[88.87994,27.84008],[88.88207,27.83763],[88.88269,27.83427],[88.88055,27.83179],[88.88045,27.82918],[88.87171,27.82559],[88.86701,27.82182],[88.8652,27.82106],[88.8639,27.81969],[88.85955,27.81746],[88.85697,27.8155],[88.85583,27.81533],[88.85834,27.8111],[88.85891,27.80733],[88.8581,27.8042],[88.85963,27.80378],[88.86023,27.80295],[88.85966,27.80098],[88.86123,27.79879],[88.86145,27.79699],[88.85982,27.79469],[88.85928,27.79023],[88.85492,27.7835],[88.85446,27.78112],[88.85468,27.7775],[88.85591,27.77077],[88.85444,27.77024],[88.85356,27.76917],[88.85328,27.76448],[88.85449,27.76295],[88.85445,27.75642],[88.85609,27.75229],[88.85628,27.752],[88.85839,27.75394],[88.85989,27.7539],[88.86161,27.75249],[88.86409,27.74666],[88.8636,27.74425],[88.86517,27.74274],[88.86397,27.74112],[88.86087,27.73959],[88.85942,27.73811],[88.85885,27.73695],[88.85866,27.73378],[88.85669,27.73167],[88.85751,27.72682],[88.85579,27.72521],[88.85559,27.72243],[88.85424,27.72012],[88.85593,27.7185],[88.8563,27.71655],[88.8547,27.71635],[88.85263,27.71449],[88.8498,27.71439],[88.8467,27.7129],[88.83979,27.71123],[88.83798,27.70629],[88.83827,27.70379],[88.83983,27.70328],[88.84197,27.70331],[88.84263,27.70288],[88.8436,27.70016],[88.84604,27.69807],[88.84766,27.69356],[88.84768,27.69282],[88.84234,27.68418],[88.84192,27.6822],[88.84243,27.68058],[88.84438,27.67965],[88.84457,27.67709],[88.84759,27.67544],[88.84839,27.66801],[88.84309,27.65991],[88.83913,27.65698],[88.83825,27.65493],[88.83572,27.65362],[88.83548,27.65299],[88.83602,27.65148],[88.83551,27.65034],[88.83385,27.64951],[88.83153,27.64666],[88.82885,27.64586],[88.82795,27.64426],[88.82509,27.64424],[88.82278,27.64353],[88.81946,27.64639],[88.81677,27.64718],[88.81603,27.64712],[88.81526,27.64609],[88.81413,27.64245],[88.81157,27.63878],[88.81119,27.63654],[88.80868,27.63444],[88.80852,27.63112],[88.80652,27.62865],[88.80491,27.62351],[88.80694,27.62211],[88.80801,27.62204],[88.80927,27.62057],[88.81079,27.61986],[88.81166,27.61839],[88.80823,27.6134],[88.80633,27.60892],[88.80744,27.60523],[88.80903,27.60253],[88.80754,27.6015],[88.80667,27.59834],[88.80473,27.59436],[88.80314,27.59434],[88.79469,27.59025],[88.79142,27.5865],[88.78837,27.58493],[88.79083,27.58116],[88.79129,27.5751],[88.78801,27.57479],[88.78444,27.57328],[88.7828,27.57206],[88.78139,27.56992],[88.77813,27.5706],[88.77,27.57126],[88.76594,27.56846],[88.76375,27.56507],[88.76416,27.56426],[88.76731,27.56202],[88.76874,27.56008],[88.77173,27.55807],[88.77393,27.55379],[88.77301,27.54896],[88.77354,27.54687],[88.77518,27.54452],[88.77335,27.54199],[88.7731,27.54076],[88.77733,27.53256],[88.78332,27.52918],[88.78517,27.53074],[88.78736,27.53068],[88.78877,27.53135],[88.79095,27.53156],[88.79193,27.53078],[88.79282,27.5289],[88.79291,27.52791],[88.79221,27.52649],[88.79277,27.52474],[88.79153,27.52347],[88.78945,27.52297],[88.78838,27.52214],[88.78903,27.51779],[88.79059,27.5158],[88.7897,27.51451],[88.78977,27.51315],[88.78752,27.51148],[88.78563,27.50654],[88.78703,27.50425],[88.78693,27.50367],[88.78389,27.50155],[88.78332,27.5004],[88.78332,27.49549],[88.78498,27.49286],[88.78569,27.48964],[88.78657,27.48817],[88.7829,27.48294],[88.78062,27.4812],[88.78115,27.47974],[88.78342,27.47705],[88.78372,27.47475],[88.78066,27.47283],[88.77797,27.47036],[88.77699,27.46846],[88.77977,27.46203],[88.7829,27.45931],[88.78442,27.45865],[88.78319,27.45608],[88.783,27.45311],[88.78364,27.45202],[88.78255,27.44965],[88.78432,27.44842],[88.78929,27.44681],[88.79255,27.44655],[88.79578,27.44749],[88.79634,27.44731],[88.7945,27.44553],[88.79475,27.44243],[88.79429,27.44048],[88.79166,27.43843],[88.79192,27.43707],[88.79317,27.4357],[88.79472,27.43183],[88.79469,27.43035],[88.79557,27.42826],[88.79642,27.42724],[88.79987,27.42644],[88.80082,27.42259],[88.8022,27.42243],[88.80788,27.42369],[88.80904,27.4234],[88.80738,27.42135],[88.80481,27.41505],[88.80683,27.41314],[88.80741,27.41002],[88.78206,27.41495],[88.77334,27.42039],[88.76898,27.42152],[88.76053,27.41501],[88.75519,27.41233],[88.74314,27.41341],[88.72355,27.41814],[88.71206,27.41556],[88.70605,27.41101],[88.69488,27.40061],[88.68987,27.39722],[88.68269,27.39698],[88.67599,27.39896],[88.65229,27.39986],[88.64651,27.40069],[88.64173,27.40254],[88.63674,27.40315],[88.63322,27.40513],[88.62704,27.40655],[88.62372,27.40853],[88.61945,27.40999],[88.61744,27.41252],[88.61674,27.41536],[88.61678,27.41768],[88.61557,27.41948],[88.61454,27.41908],[88.6124,27.41923],[88.60929,27.41705],[88.60703,27.4173],[88.60574,27.4168],[88.60149,27.41638],[88.5972,27.41745],[88.59268,27.4158],[88.58724,27.41733],[88.58023,27.41762],[88.57435,27.42012],[88.57241,27.42192],[88.56911,27.42353],[88.56511,27.4265],[88.56309,27.42888],[88.55958,27.42918],[88.55716,27.43067],[88.54985,27.43258],[88.54573,27.43223],[88.54334,27.43123],[88.53842,27.42471],[88.53624,27.42358],[88.52004,27.4203],[88.51474,27.41725],[88.50994,27.41143],[88.50544,27.42033],[88.50016,27.42146],[88.49952,27.42271],[88.49756,27.42391],[88.4938,27.42483],[88.49209,27.42688],[88.491,27.4274],[88.48309,27.42877],[88.48162,27.42859],[88.48045,27.43014],[88.47858,27.43077],[88.47609,27.4329],[88.47456,27.43344],[88.47241,27.43587],[88.46799,27.43771],[88.4671,27.43996],[88.46538,27.44167],[88.46442,27.44976],[88.4648,27.45061],[88.46353,27.45147],[88.45381,27.45245],[88.43742,27.45265],[88.41152,27.44751],[88.39474,27.45453],[88.37813,27.46444],[88.37611,27.4692],[88.3756,27.47371],[88.36493,27.494],[88.36403,27.51903],[88.3524,27.53124],[88.34639,27.53461],[88.32664,27.55339],[88.32554,27.55494],[88.32168,27.56816],[88.31514,27.57386],[88.3101,27.57735],[88.30728,27.57846],[88.29819,27.57845],[88.29159,27.57688],[88.27406,27.57021],[88.26289,27.56697],[88.24829,27.56176],[88.24158,27.5581],[88.23533,27.55289],[88.23042,27.54554],[88.21429,27.5528],[88.21024,27.55719],[88.20464,27.56788],[88.20207,27.5754],[88.19736,27.58268],[88.18931,27.59243],[88.1841,27.59733],[88.16324,27.60487],[88.1138,27.61621]]]}},{"id":"4","type":"Feature","properties":{"state":"SIKKIM","state_lgd":"11","district":"GANGTOK","district_lgd":"244"},"geometry":{"type":"Polygon","coordinates":[[[88.78206,27.41495],[88.80741,27.41002],[88.8062,27.4068],[88.80953,27.40497],[88.81258,27.40125],[88.81659,27.40234],[88.81843,27.40146],[88.82096,27.39858],[88.82331,27.39058],[88.82838,27.39055],[88.83051,27.38997],[88.83114,27.38926],[88.83139,27.38583],[88.83595,27.3823],[88.83767,27.37916],[88.83913,27.37974],[88.8423,27.38207],[88.84376,27.38379],[88.84575,27.38488],[88.84718,27.385],[88.85003,27.38392],[88.85334,27.38479],[88.85663,27.3844],[88.8595,27.38523],[88.86095,27.38654],[88.86216,27.38401],[88.86197,27.38193],[88.86428,27.37865],[88.86305,27.37505],[88.86341,27.37287],[88.86281,27.36982],[88.86675,27.36581],[88.86931,27.36455],[88.87242,27.36411],[88.87462,27.36271],[88.8762,27.36021],[88.88109,27.36041],[88.88165,27.35799],[88.88063,27.35254],[88.88194,27.35098],[88.88537,27.35115],[88.88203,27.34625],[88.88223,27.34476],[88.88402,27.34252],[88.89147,27.33911],[88.89505,27.33218],[88.89794,27.33303],[88.89962,27.33277],[88.90312,27.33121],[88.9049,27.32903],[88.90578,27.32859],[88.91265,27.32954],[88.9154,27.33071],[88.9192,27.32797],[88.91926,27.32062],[88.91857,27.31829],[88.91607,27.31602],[88.91469,27.3134],[88.91367,27.30992],[88.9087,27.30368],[88.90161,27.30258],[88.87204,27.29953],[88.85845,27.29942],[88.82043,27.29704],[88.81286,27.29764],[88.74612,27.30594],[88.73963,27.30957],[88.73241,27.31497],[88.71768,27.32167],[88.71232,27.32266],[88.70748,27.32072],[88.69348,27.31315],[88.6791,27.30619],[88.67238,27.30223],[88.66893,27.29954],[88.66775,27.29802],[88.66561,27.29708],[88.6651,27.29984],[88.66972,27.30399],[88.67079,27.30635],[88.67074,27.30873],[88.66956,27.30952],[88.66816,27.31148],[88.6649,27.30853],[88.66091,27.30744],[88.65863,27.30579],[88.65627,27.30528],[88.65404,27.30331],[88.64459,27.29846],[88.64296,27.2985],[88.64143,27.29939],[88.63962,27.30144],[88.63804,27.30164],[88.63616,27.30069],[88.63366,27.30202],[88.6312,27.3024],[88.62639,27.30239],[88.6251,27.30159],[88.62249,27.30099],[88.62066,27.30152],[88.61931,27.30067],[88.61723,27.30121],[88.61553,27.29906],[88.61427,27.29944],[88.61347,27.29894],[88.61237,27.29935],[88.6106,27.29809],[88.60925,27.29882],[88.60742,27.29725],[88.60711,27.29532],[88.60767,27.29497],[88.6066,27.29453],[88.60451,27.28994],[88.60255,27.28865],[88.60164,27.284],[88.59932,27.28365],[88.59857,27.2828],[88.59831,27.28189],[88.59981,27.28137],[88.5999,27.2806],[88.59781,27.2782],[88.59812,27.27609],[88.5973,27.27587],[88.59716,27.27443],[88.59604,27.27348],[88.59502,27.27373],[88.59419,27.275],[88.59314,27.27423],[88.58932,27.27459],[88.58658,27.27516],[88.58528,27.2765],[88.585,27.27505],[88.58401,27.27515],[88.5826,27.27389],[88.58139,27.27359],[88.58116,27.27293],[88.57983,27.27238],[88.57889,27.27136],[88.57853,27.27028],[88.57468,27.27015],[88.57317,27.26877],[88.57125,27.26827],[88.57078,27.27008],[88.5709,27.27043],[88.57157,27.27017],[88.57161,27.26958],[88.57224,27.27124],[88.57285,27.27127],[88.57271,27.27361],[88.56985,27.27607],[88.56732,27.27604],[88.56781,27.27775],[88.56869,27.27882],[88.56865,27.27965],[88.56679,27.27988],[88.56357,27.28268],[88.55497,27.28148],[88.55242,27.27848],[88.54893,27.27838],[88.54674,27.27702],[88.54218,27.27299],[88.53926,27.27176],[88.53859,27.2708],[88.5393,27.26976],[88.53875,27.26932],[88.53795,27.26926],[88.53661,27.27063],[88.5349,27.27],[88.53096,27.27149],[88.52505,27.26664],[88.52275,27.2665],[88.52131,27.26473],[88.52068,27.26262],[88.52091,27.26217],[88.52343,27.26181],[88.52068,27.26026],[88.5201,27.26093],[88.518,27.26111],[88.51611,27.25998],[88.51437,27.26045],[88.51322,27.26027],[88.51192,27.25957],[88.51023,27.25765],[88.50746,27.25596],[88.50337,27.25604],[88.50175,27.25563],[88.49972,27.25322],[88.49766,27.25201],[88.49898,27.24863],[88.4958,27.24785],[88.49221,27.24574],[88.4904,27.24534],[88.48974,27.25091],[88.48909,27.25104],[88.48974,27.25101],[88.48984,27.25197],[88.48727,27.25665],[88.48617,27.26143],[88.48462,27.26258],[88.48015,27.26404],[88.47671,27.26585],[88.47626,27.26554],[88.47658,27.26594],[88.47477,27.26674],[88.47418,27.26881],[88.4696,27.27121],[88.46806,27.27513],[88.46359,27.28112],[88.46193,27.28817],[88.4596,27.28945],[88.45587,27.28896],[88.45398,27.28929],[88.44748,27.29769],[88.44698,27.29994],[88.44826,27.30543],[88.44745,27.31111],[88.44827,27.31353],[88.4519,27.31857],[88.45318,27.31959],[88.45318,27.324],[88.45525,27.32894],[88.45527,27.33542],[88.45706,27.33804],[88.46001,27.34008],[88.46236,27.34286],[88.46256,27.34674],[88.4619,27.3496],[88.46286,27.35164],[88.46498,27.35254],[88.46633,27.35383],[88.46759,27.35386],[88.46952,27.35297],[88.47105,27.35365],[88.47534,27.35346],[88.47832,27.35627],[88.48313,27.35671],[88.48884,27.35987],[88.49165,27.36194],[88.4933,27.36329],[88.49432,27.36502],[88.49525,27.37178],[88.49419,27.37904],[88.49408,27.3876],[88.49478,27.39389],[88.5,27.40657],[88.50231,27.40982],[88.50994,27.41143],[88.51474,27.41725],[88.52004,27.4203],[88.53624,27.42358],[88.53842,27.42471],[88.54334,27.43123],[88.54573,27.43223],[88.54985,27.43258],[88.55716,27.43067],[88.55958,27.42918],[88.56309,27.42888],[88.56511,27.4265],[88.56911,27.42353],[88.57241,27.42192],[88.57435,27.42012],[88.58023,27.41762],[88.58724,27.41733],[88.59268,27.4158],[88.5972,27.41745],[88.60149,27.41638],[88.60574,27.4168],[88.60703,27.4173],[88.60929,27.41705],[88.6124,27.41923],[88.61454,27.41908],[88.61557,27.41948],[88.61678,27.41768],[88.61674,27.41536],[88.61744,27.41252],[88.61945,27.40999],[88.62372,27.40853],[88.62704,27.40655],[88.63322,27.40513],[88.63674,27.40315],[88.64173,27.40254],[88.64651,27.40069],[88.65229,27.39986],[88.67599,27.39896],[88.68269,27.39698],[88.68987,27.39722],[88.69488,27.40061],[88.70605,27.41101],[88.71206,27.41556],[88.72355,27.41814],[88.74314,27.41341],[88.75519,27.41233],[88.76053,27.41501],[88.76898,27.42152],[88.77334,27.42039],[88.78206,27.41495]]]}},{"id":"5","type":"Feature","properties":{"state":"SIKKIM","state_lgd":"11","district":"SORENG","district_lgd":"701"},"geometry":{"type":"Polygon","coordinates":[[[88.24022,27.27051],[88.24356,27.26979],[88.24695,27.27006],[88.24785,27.26961],[88.24902,27.26674],[88.25073,27.26551],[88.25081,27.264],[88.25169,27.26355],[88.25483,27.26463],[88.25589,27.26415],[88.25575,27.26358],[88.25627,27.26318],[88.25565,27.26124],[88.25707,27.26057],[88.26183,27.25979],[88.26624,27.25611],[88.26914,27.25564],[88.27065,27.25475],[88.2728,27.25465],[88.27691,27.25316],[88.27879,27.25311],[88.28163,27.25161],[88.28237,27.24558],[88.28354,27.24079],[88.28835,27.23275],[88.29115,27.23086],[88.29789,27.22976],[88.30043,27.22885],[88.30411,27.22633],[88.30596,27.22414],[88.30705,27.22183],[88.30893,27.21269],[88.31669,27.19663],[88.31693,27.19517],[88.31441,27.19301],[88.31411,27.19189],[88.31735,27.18757],[88.31703,27.18605],[88.31628,27.18538],[88.30689,27.18176],[88.30502,27.17978],[88.30245,27.17834],[88.29938,27.17478],[88.29907,27.17065],[88.29802,27.16885],[88.29557,27.16855],[88.29182,27.1672],[88.28909,27.16523],[88.28936,27.16346],[88.29104,27.1606],[88.29111,27.15898],[88.28299,27.14796],[88.28307,27.14575],[88.28445,27.14311],[88.28226,27.13578],[88.2806,27.13457],[88.27648,27.13378],[88.27705,27.13075],[88.27421,27.13083],[88.2735,27.12886],[88.27248,27.12815],[88.26839,27.12951],[88.26566,27.12768],[88.26278,27.12784],[88.25906,27.12526],[88.25477,27.12436],[88.24858,27.12435],[88.2476,27.12386],[88.24642,27.12205],[88.24485,27.12173],[88.24278,27.11982],[88.24122,27.11936],[88.23983,27.11962],[88.23344,27.11889],[88.22894,27.11914],[88.22168,27.12439],[88.2196,27.12511],[88.21945,27.12847],[88.2157,27.13166],[88.21375,27.13196],[88.21245,27.13014],[88.21149,27.12989],[88.21081,27.13118],[88.20899,27.13124],[88.20656,27.13312],[88.20531,27.1335],[88.20431,27.13337],[88.20237,27.13167],[88.20144,27.13143],[88.19923,27.13328],[88.19716,27.13319],[88.1949,27.13487],[88.19203,27.13248],[88.18958,27.13322],[88.18658,27.13239],[88.18536,27.13077],[88.18469,27.13088],[88.18323,27.13237],[88.18101,27.13247],[88.18031,27.13217],[88.17972,27.13013],[88.17919,27.12983],[88.17587,27.12981],[88.17442,27.12801],[88.17232,27.12736],[88.1706,27.12263],[88.16842,27.12298],[88.16729,27.12243],[88.16671,27.12024],[88.16451,27.1184],[88.16427,27.11628],[88.16213,27.11343],[88.16021,27.11252],[88.15859,27.11346],[88.15731,27.11053],[88.15635,27.11],[88.15178,27.10958],[88.15097,27.10997],[88.15065,27.11309],[88.14984,27.1139],[88.14832,27.11364],[88.14616,27.11186],[88.14472,27.11195],[88.14426,27.11234],[88.14456,27.11468],[88.14404,27.11561],[88.13891,27.11391],[88.13636,27.11475],[88.13539,27.11657],[88.13633,27.1191],[88.13549,27.12048],[88.13151,27.1216],[88.12718,27.12074],[88.12538,27.1212],[88.12354,27.12101],[88.12194,27.12204],[88.1198,27.12484],[88.11724,27.12594],[88.11414,27.12807],[88.11174,27.13118],[88.10834,27.13176],[88.10528,27.13107],[88.10081,27.13284],[88.09875,27.1331],[88.09712,27.13257],[88.09671,27.1328],[88.09474,27.13652],[88.09299,27.13786],[88.09229,27.13961],[88.08885,27.14326],[88.08894,27.14539],[88.08775,27.14615],[88.08813,27.14964],[88.08743,27.15103],[88.08811,27.15481],[88.08749,27.15633],[88.08773,27.15848],[88.08684,27.1596],[88.08669,27.16309],[88.0871,27.16422],[88.0863,27.16553],[88.08444,27.166],[88.08083,27.17002],[88.07741,27.1729],[88.07976,27.17437],[88.07874,27.17668],[88.07898,27.17853],[88.07854,27.18035],[88.07512,27.18404],[88.07445,27.18602],[88.07272,27.1872],[88.07433,27.19281],[88.07595,27.19515],[88.07802,27.19696],[88.07832,27.19882],[88.07933,27.20083],[88.07564,27.20309],[88.07169,27.20416],[88.06972,27.20621],[88.06552,27.20916],[88.0644,27.21105],[88.06493,27.21364],[88.06466,27.21431],[88.06277,27.21457],[88.06144,27.21413],[88.05975,27.21428],[88.05282,27.21341],[88.05057,27.21441],[88.04757,27.21747],[88.04389,27.21923],[88.03951,27.21927],[88.03807,27.22043],[88.03437,27.22104],[88.03197,27.22103],[88.02926,27.22015],[88.02743,27.22085],[88.02611,27.22042],[88.02392,27.21944],[88.02211,27.21692],[88.01659,27.21497],[88.01426,27.21291],[88.01233,27.21593],[88.01417,27.21909],[88.01453,27.22109],[88.01676,27.22314],[88.01715,27.2255],[88.0189,27.22498],[88.01909,27.22986],[88.01975,27.23139],[88.01914,27.23477],[88.01939,27.23588],[88.02162,27.23752],[88.02463,27.23762],[88.02483,27.24022],[88.02431,27.24208],[88.02678,27.24604],[88.02783,27.24947],[88.03089,27.24991],[88.03065,27.25121],[88.03105,27.25196],[88.0303,27.25525],[88.03102,27.25809],[88.03063,27.26029],[88.0312,27.2615],[88.03069,27.26285],[88.03188,27.2649],[88.0312,27.26793],[88.03161,27.26924],[88.03043,27.27194],[88.03127,27.27469],[88.03134,27.27707],[88.03211,27.27784],[88.03566,27.27755],[88.03766,27.27342],[88.04422,27.27101],[88.05155,27.27177],[88.05498,27.27081],[88.05773,27.26838],[88.05901,27.26584],[88.06048,27.26421],[88.06087,27.2614],[88.0616,27.26072],[88.06387,27.2608],[88.06527,27.26168],[88.06759,27.26181],[88.06974,27.26122],[88.07005,27.26056],[88.07237,27.26085],[88.07457,27.26183],[88.08206,27.25795],[88.08736,27.25231],[88.09038,27.25151],[88.0931,27.25229],[88.09383,27.25335],[88.09935,27.25344],[88.10195,27.25402],[88.10315,27.25244],[88.10594,27.24545],[88.1074,27.24398],[88.10963,27.24462],[88.11397,27.24483],[88.11559,27.24608],[88.11599,27.24991],[88.11716,27.25202],[88.1188,27.25434],[88.12345,27.25833],[88.12475,27.25799],[88.12794,27.25857],[88.1316,27.26019],[88.13819,27.25972],[88.14424,27.2534],[88.14495,27.25427],[88.14666,27.25478],[88.15049,27.25475],[88.1509,27.25433],[88.15396,27.25426],[88.15701,27.2521],[88.15874,27.25364],[88.16167,27.25425],[88.16316,27.25612],[88.16615,27.257],[88.16639,27.25756],[88.16888,27.25892],[88.17006,27.25902],[88.17235,27.26086],[88.1763,27.25822],[88.18061,27.25772],[88.18259,27.25665],[88.18843,27.25711],[88.18916,27.25826],[88.18849,27.2593],[88.18771,27.25941],[88.18618,27.26086],[88.18543,27.26065],[88.18328,27.26119],[88.18226,27.26087],[88.18166,27.26141],[88.18148,27.26298],[88.18251,27.26323],[88.18599,27.26597],[88.18631,27.2654],[88.1877,27.26494],[88.18931,27.26622],[88.18983,27.26596],[88.19536,27.26014],[88.19774,27.25923],[88.19916,27.25896],[88.19929,27.25927],[88.20016,27.25858],[88.20114,27.2605],[88.19936,27.26281],[88.19928,27.26512],[88.1999,27.26608],[88.20271,27.26538],[88.20176,27.26391],[88.2022,27.26288],[88.2019,27.26072],[88.20133,27.26082],[88.20109,27.26068],[88.20183,27.25916],[88.20107,27.25801],[88.20368,27.25721],[88.20491,27.25616],[88.2051,27.25662],[88.20649,27.25666],[88.20846,27.25794],[88.21128,27.25835],[88.21567,27.25779],[88.21931,27.25893],[88.22104,27.25903],[88.22411,27.2604],[88.22651,27.26208],[88.22724,27.26461],[88.22993,27.26664],[88.22998,27.26743],[88.23074,27.26827],[88.23088,27.26987],[88.2315,27.27034],[88.2338,27.26968],[88.23326,27.26773],[88.23359,27.26726],[88.23456,27.26751],[88.23561,27.26675],[88.23697,27.26686],[88.23725,27.26636],[88.23877,27.26583],[88.23919,27.26621],[88.23867,27.26747],[88.23948,27.26781],[88.23907,27.26834],[88.23964,27.26853],[88.23903,27.26917],[88.23966,27.26917],[88.23952,27.26963],[88.23991,27.26945],[88.24022,27.27051]]]}}]}